{
  "type": "FeatureCollection",
  "features": [
    {
      "type": "Feature",
      "properties": {
        "norad_id": 19071,
        "name": "OSCAR 32",
        "group": "nnss",
        "lat": 20.25393289144516,
        "lon": -162.94074224286976,
        "alt_km": 1030.3318254304331,
        "timestamp": "2025-12-26T03:50:12.361926+00:00",
        "meta_object_name": "OSCAR 32",
        "meta_object_id": "1988-033B",
        "meta_epoch": "2025-12-25T13:08:21.516000",
        "meta_mean_motion": 13.27955818,
        "meta_eccentricity": 0.0189258,
        "meta_inclination": 90.3209,
        "meta_ra_of_asc_node": 16.9217,
        "meta_arg_of_pericenter": 131.3315,
        "meta_mean_anomaly": 341.3068,
        "meta_ephemeris_type": 0,
        "meta_classification_type": "U",
        "meta_norad_cat_id": 19071,
        "meta_element_set_no": 999,
        "meta_rev_at_epoch": 82435,
        "meta_bstar": 0.00011842,
        "meta_mean_motion_dot": 6.9e-07,
        "meta_mean_motion_ddot": 0,
        "tle_line1": "1 19071U 88033B   25359.54747125  .00000069  00000+0  11842-3 0  9992",
        "tle_line2": "2 19071  90.3209  16.9217 0189258 131.3315 341.3068 13.27955818824355"
      },
      "geometry": {
        "type": "Point",
        "coordinates": [
          -162.94074224286976,
          20.25393289144516
        ]
      }
    },
    {
      "type": "Feature",
      "properties": {
        "norad_id": 19223,
        "name": "NOVA 2",
        "group": "nnss",
        "lat": 66.01945806955139,
        "lon": -101.77541341143939,
        "alt_km": 1182.6818692786364,
        "timestamp": "2025-12-26T03:50:12.361936+00:00",
        "meta_object_name": "NOVA 2",
        "meta_object_id": "1988-052A",
        "meta_epoch": "2025-12-25T16:57:54.227232",
        "meta_mean_motion": 13.22937418,
        "meta_eccentricity": 0.0029485,
        "meta_inclination": 89.9863,
        "meta_ra_of_asc_node": 78.256,
        "meta_arg_of_pericenter": 340.9131,
        "meta_mean_anomaly": 136.6445,
        "meta_ephemeris_type": 0,
        "meta_classification_type": "U",
        "meta_norad_cat_id": 19223,
        "meta_element_set_no": 999,
        "meta_rev_at_epoch": 81119,
        "meta_bstar": 0.00013152,
        "meta_mean_motion_dot": 6.4e-07,
        "meta_mean_motion_ddot": 0,
        "tle_line1": "1 19223U 88052A   25359.70687763  .00000064  00000+0  13152-3 0  9992",
        "tle_line2": "2 19223  89.9863  78.2560 0029485 340.9131 136.6445 13.22937418811198"
      },
      "geometry": {
        "type": "Point",
        "coordinates": [
          -101.77541341143939,
          66.01945806955139
        ]
      }
    },
    {
      "type": "Feature",
      "properties": {
        "norad_id": 19419,
        "name": "OSCAR 25",
        "group": "nnss",
        "lat": 59.12281703111255,
        "lon": 20.231277800405604,
        "alt_km": 1154.0217374112199,
        "timestamp": "2025-12-26T03:50:12.361946+00:00",
        "meta_object_name": "OSCAR 25",
        "meta_object_id": "1988-074A",
        "meta_epoch": "2025-12-25T15:36:48.885120",
        "meta_mean_motion": 13.42625604,
        "meta_eccentricity": 0.0095249,
        "meta_inclination": 90.0336,
        "meta_ra_of_asc_node": 20.2858,
        "meta_arg_of_pericenter": 208.5252,
        "meta_mean_anomaly": 271.0137,
        "meta_ephemeris_type": 0,
        "meta_classification_type": "U",
        "meta_norad_cat_id": 19419,
        "meta_element_set_no": 999,
        "meta_rev_at_epoch": 82813,
        "meta_bstar": 0.00011627,
        "meta_mean_motion_dot": 7.6e-07,
        "meta_mean_motion_ddot": 0,
        "tle_line1": "1 19419U 88074A   25359.65056580  .00000076  00000+0  11627-3 0  9992",
        "tle_line2": "2 19419  90.0336  20.2858 0095249 208.5252 271.0137 13.42625604828131"
      },
      "geometry": {
        "type": "Point",
        "coordinates": [
          20.231277800405604,
          59.12281703111255
        ]
      }
    },
    {
      "type": "Feature",
      "properties": {
        "norad_id": 19420,
        "name": "OSCAR 31",
        "group": "nnss",
        "lat": -57.35660976007794,
        "lon": 20.6950659822876,
        "alt_km": 1120.1356292961827,
        "timestamp": "2025-12-26T03:50:12.361956+00:00",
        "meta_object_name": "OSCAR 31",
        "meta_object_id": "1988-074B",
        "meta_epoch": "2025-12-25T14:24:12.037248",
        "meta_mean_motion": 13.4258666,
        "meta_eccentricity": 0.0093641,
        "meta_inclination": 90.0354,
        "meta_ra_of_asc_node": 20.6378,
        "meta_arg_of_pericenter": 202.82,
        "meta_mean_anomaly": 275.1045,
        "meta_ephemeris_type": 0,
        "meta_classification_type": "U",
        "meta_norad_cat_id": 19420,
        "meta_element_set_no": 999,
        "meta_rev_at_epoch": 82823,
        "meta_bstar": 0.00010561,
        "meta_mean_motion_dot": 7e-07,
        "meta_mean_motion_ddot": 0,
        "tle_line1": "1 19420U 88074B   25359.60013932  .00000070  00000+0  10561-3 0  9993",
        "tle_line2": "2 19420  90.0354  20.6378 0093641 202.8200 275.1045 13.42586660828230"
      },
      "geometry": {
        "type": "Point",
        "coordinates": [
          20.6950659822876,
          -57.35660976007794
        ]
      }
    }
  ]
}